KNACKSAT-2              
1 67683U 98067XZ  26087.26490943  .00044943  00000+0  70041-3 0  9998
2 67683  51.6323 339.4481 0009955 253.0442 106.9457 15.53355433  7671
