[{"OBJECT_NAME":"KNACKSAT-2","OBJECT_ID":"1998-067XZ","EPOCH":"2026-03-28T06:21:28.174752","MEAN_MOTION":15.53355433,"ECCENTRICITY":0.0009955,"INCLINATION":51.6323,"RA_OF_ASC_NODE":339.4481,"ARG_OF_PERICENTER":253.0442,"MEAN_ANOMALY":106.9457,"EPHEMERIS_TYPE":0,"CLASSIFICATION_TYPE":"U","NORAD_CAT_ID":67683,"ELEMENT_SET_NO":999,"REV_AT_EPOCH":767,"BSTAR":0.00070041,"MEAN_MOTION_DOT":0.00044943,"MEAN_MOTION_DDOT":0}]
